{"type":"FeatureCollection","features":[{"type":"Feature","geometry":{"type":"Polygon","coordinates":[[[121.285881407027,17.032160013785],[121.285881407027,17.022810421790002],[121.220434263062,17.022810421790002],[121.220434263062,17.0041112378],[121.173686303087,17.0041112378],[121.173686303087,17.013460829795],[121.089539975132,17.013460829795],[121.089539975132,17.0041112378],[121.08019038313701,17.0041112378],[121.08019038313701,16.994761645805],[121.052141607152,16.994761645805],[121.052141607152,17.0041112378],[121.042792015157,17.0041112378],[121.042792015157,16.985412053810002],[121.033442423162,16.985412053810002],[121.033442423162,16.96671286982],[121.024092831167,16.96671286982],[121.024092831167,16.957363277825],[121.014743239172,16.957363277825],[121.014743239172,16.948013685830002],[121.005393647177,16.948013685830002],[121.005393647177,16.938664093835],[120.986694463187,16.938664093835],[120.986694463187,16.92931450184],[120.977344871192,16.92931450184],[120.977344871192,16.919964909845],[120.967995279197,16.919964909845],[120.967995279197,16.910615317850002],[120.95864568720201,16.910615317850002],[120.95864568720201,16.882566541865],[120.949296095207,16.882566541865],[120.949296095207,16.873216949870002],[120.939946503212,16.873216949870002],[120.939946503212,16.85451776588],[120.921247319222,16.85451776588],[120.921247319222,16.845168173885],[120.911897727227,16.845168173885],[120.911897727227,16.835818581890003],[120.902548135232,16.835818581890003],[120.902548135232,16.8171193979],[120.893198543237,16.8171193979],[120.893198543237,16.789070621915002],[120.902548135232,16.789070621915002],[120.902548135232,16.74232266194],[120.883848951242,16.74232266194],[120.883848951242,16.732973069945],[120.874499359247,16.732973069945],[120.874499359247,16.70492429396],[120.883848951242,16.70492429396],[120.883848951242,16.64882674199],[120.893198543237,16.64882674199],[120.893198543237,16.630127558],[120.902548135232,16.630127558],[120.902548135232,16.61142837401],[120.911897727227,16.61142837401],[120.911897727227,16.602078782015],[120.902548135232,16.602078782015],[120.902548135232,16.564680414035],[120.911897727227,16.564680414035],[120.911897727227,16.555330822040002],[120.902548135232,16.555330822040002],[120.902548135232,16.517932454060002],[120.893198543237,16.517932454060002],[120.893198543237,16.508582862065],[120.883848951242,16.508582862065],[120.883848951242,16.49923327007],[120.893198543237,16.49923327007],[120.893198543237,16.415086942115],[120.883848951242,16.415086942115],[120.883848951242,16.396387758125],[120.893198543237,16.396387758125],[120.893198543237,16.34963979815],[120.902548135232,16.34963979815],[120.902548135232,16.29354224618],[120.893198543237,16.29354224618],[120.893198543237,16.2561438782],[120.883848951242,16.2561438782],[120.883848951242,16.228095102215],[120.874499359247,16.228095102215],[120.874499359247,16.190696734235],[120.865149767252,16.190696734235],[120.865149767252,16.171997550245003],[120.874499359247,16.171997550245003],[120.874499359247,16.153298366255],[120.883848951242,16.153298366255],[120.883848951242,16.134599182265],[120.949296095207,16.134599182265],[120.949296095207,16.125249590270002],[120.977344871192,16.125249590270002],[120.977344871192,16.134599182265],[121.070840791142,16.134599182265],[121.070840791142,16.14394877426],[121.08019038313701,16.14394877426],[121.08019038313701,16.134599182265],[121.10823915912201,16.134599182265],[121.10823915912201,16.14394877426],[121.117588751117,16.14394877426],[121.117588751117,16.153298366255],[121.136287935107,16.153298366255],[121.136287935107,16.162647958250002],[121.145637527102,16.162647958250002],[121.145637527102,16.171997550245003],[121.164336711092,16.171997550245003],[121.164336711092,16.18134714224],[121.173686303087,16.18134714224],[121.173686303087,16.209395918225002],[121.183035895082,16.209395918225002],[121.183035895082,16.228095102215],[121.211084671067,16.228095102215],[121.211084671067,16.21874551022],[121.220434263062,16.21874551022],[121.220434263062,16.23744469421],[121.22978385505701,16.23744469421],[121.22978385505701,16.27484306219],[121.220434263062,16.27484306219],[121.220434263062,16.302891838175],[121.22978385505701,16.302891838175],[121.22978385505701,16.33094061416],[121.211084671067,16.33094061416],[121.211084671067,16.340290206155],[121.20173507907201,16.340290206155],[121.20173507907201,16.36833898214],[121.211084671067,16.36833898214],[121.211084671067,16.38703816613],[121.220434263062,16.38703816613],[121.220434263062,16.415086942115],[121.239133447052,16.415086942115],[121.239133447052,16.40573735012],[121.248483039047,16.40573735012],[121.248483039047,16.396387758125],[121.267182223037,16.396387758125],[121.267182223037,16.377688574135],[121.295230999022,16.377688574135],[121.295230999022,16.36833898214],[121.304580591017,16.36833898214],[121.304580591017,16.358989390145002],[121.341978958997,16.358989390145002],[121.341978958997,16.377688574135],[121.35132855099201,16.377688574135],[121.35132855099201,16.38703816613],[121.360678142987,16.38703816613],[121.360678142987,16.396387758125],[121.370027734982,16.396387758125],[121.370027734982,16.415086942115],[121.379377326977,16.415086942115],[121.379377326977,16.443135718100002],[121.370027734982,16.443135718100002],[121.370027734982,16.471184494085],[121.360678142987,16.471184494085],[121.360678142987,16.527282046055],[121.35132855099201,16.527282046055],[121.35132855099201,16.53663163805],[121.332629367002,16.53663163805],[121.332629367002,16.545981230045],[121.32327977500701,16.545981230045],[121.32327977500701,16.555330822040002],[121.313930183012,16.555330822040002],[121.313930183012,16.564680414035],[121.304580591017,16.564680414035],[121.304580591017,16.57403000603],[121.295230999022,16.57403000603],[121.295230999022,16.602078782015],[121.313930183012,16.602078782015],[121.313930183012,16.620777966005],[121.332629367002,16.620777966005],[121.332629367002,16.72362347795],[121.341978958997,16.72362347795],[121.341978958997,16.732973069945],[121.360678142987,16.732973069945],[121.360678142987,16.74232266194],[121.370027734982,16.74232266194],[121.370027734982,16.751672253935002],[121.388726918972,16.751672253935002],[121.388726918972,16.76102184593],[121.398076510967,16.76102184593],[121.398076510967,16.770371437925],[121.407426102962,16.770371437925],[121.407426102962,16.77972102992],[121.416775694957,16.77972102992],[121.416775694957,16.807769805905],[121.435474878947,16.807769805905],[121.435474878947,16.8171193979],[121.454174062937,16.8171193979],[121.454174062937,16.826468989895],[121.416775694957,16.826468989895],[121.416775694957,16.845168173885],[121.407426102962,16.845168173885],[121.407426102962,16.863867357875],[121.388726918972,16.863867357875],[121.388726918972,16.85451776588],[121.370027734982,16.85451776588],[121.370027734982,16.845168173885],[121.35132855099201,16.845168173885],[121.35132855099201,16.835818581890003],[121.341978958997,16.835818581890003],[121.341978958997,16.826468989895],[121.32327977500701,16.826468989895],[121.32327977500701,16.8171193979],[121.313930183012,16.8171193979],[121.313930183012,16.826468989895],[121.304580591017,16.826468989895],[121.304580591017,16.863867357875],[121.32327977500701,16.863867357875],[121.32327977500701,16.873216949870002],[121.332629367002,16.873216949870002],[121.332629367002,16.89191613386],[121.341978958997,16.89191613386],[121.341978958997,16.910615317850002],[121.332629367002,16.910615317850002],[121.332629367002,16.92931450184],[121.32327977500701,16.92931450184],[121.32327977500701,16.948013685830002],[121.332629367002,16.948013685830002],[121.332629367002,16.976062461815],[121.341978958997,16.976062461815],[121.341978958997,16.994761645805],[121.332629367002,16.994761645805],[121.332629367002,17.0041112378],[121.32327977500701,17.0041112378],[121.32327977500701,17.013460829795],[121.313930183012,17.013460829795],[121.313930183012,17.022810421790002],[121.304580591017,17.022810421790002],[121.304580591017,17.032160013785],[121.285881407027,17.032160013785]]]},"properties":{"basin":"magat"}}]}