{"type":"FeatureCollection","features":[{"type":"Feature","geometry":{"type":"Polygon","coordinates":[[[121.31206587054639,16.594844541020056],[121.31627272020864,16.5835556537311],[121.31711409014109,16.572266104026614],[121.31879683000595,16.56016942329009],[121.32216230973573,16.548071983077648],[121.33730696851968,16.540006601247793],[121.34487929791167,16.53678035409713],[121.35918258676321,16.527101289044968],[121.36675491615519,16.51984167182678],[121.38189957493913,16.506128317247956],[121.38863053439869,16.49322074203254],[121.39115464419599,16.483539495545813],[121.39956834352044,16.47708506227806],[121.40545793304754,16.459334262074968],[121.40798204284486,16.452072102662825],[121.40966478270975,16.448844388997653],[121.41050615264217,16.439160925929077],[121.40629930297999,16.42544185998848],[121.39704423372311,16.418985493805874],[121.38105820500668,16.418985493805874],[121.37264450568227,16.41252891322908],[121.37180313574983,16.39800082344037],[121.36254806649296,16.392350717913516],[121.35497573710099,16.38427885426989],[121.34656203777654,16.37539941807963],[121.3415138181819,16.3673268524452],[121.33394148878993,16.360868559411447],[121.32132093980326,16.35441005265785],[121.30701765095178,16.360868559411447],[121.30112806142468,16.36571229922711],[121.29811231475813,16.368938496251193],[121.28598340264067,16.37943557558067],[121.27252148372163,16.38024279705326],[121.26074230466739,16.38427885426989],[121.25569408507278,16.390736371940765],[121.25064586547808,16.402843640538563],[121.23970805635635,16.406879229412993],[121.2287702472346,16.406072118332965],[121.21783243811285,16.39477221178416],[121.21446695838307,16.382664441413088],[121.21278421851818,16.370555918793706],[121.21278421851818,16.359253952756358],[121.21225757145912,16.352740797149877],[121.21267200616674,16.3418045828605],[121.2262461374373,16.33099617528152],[121.2287702472346,16.309194527528128],[121.22456339757241,16.297889013543536],[121.22203928777505,16.283352394316182],[121.22731155178073,16.2694558549741],[121.23129435703194,16.25993001973761],[121.22961161716705,16.242967246118983],[121.22708750736975,16.22681086324352],[121.21783243811285,16.222771560290244],[121.21110147865332,16.222771560290244],[121.20437051919376,16.22681086324352],[121.19460059171564,16.23448339991707],[121.18084711987012,16.22912992422607],[121.18177640850853,16.21289015745422],[121.18066126214268,16.205037482395895],[121.17880268486626,16.195042716314745],[121.17828805128804,16.186414107351037],[121.16735024216631,16.1767176547935],[121.15304695331476,16.169445002954358],[121.14210914419303,16.164596419682624],[121.12948859520638,16.154090747964272],[121.12023352594953,16.146817263725886],[121.1084543468953,16.13954351215132],[121.10215324472279,16.12517923653712],[121.09750931625399,16.12517923653712],[121.08822145931639,16.12517923653712],[121.08331657305929,16.123151309354395],[121.07627118303027,16.1187717896541],[121.07129796653913,16.116781066898437],[121.05389170882026,16.112799561430762],[121.04684631879117,16.113595868919038],[121.0402153634697,16.113994021464215],[121.02861119165708,16.11837364670197],[121.01418752371535,16.122378797754305],[121.001258500956,16.12275317519811],[120.99565735258413,16.11593170169001],[120.98854577339324,16.111793902732217],[120.98103354185356,16.109388165980622],[120.96851815905617,16.108021649367377],[120.9628353906585,16.111247451130726],[120.95819146218966,16.111247451130726],[120.94986859721453,16.113197715574557],[120.94282320718546,16.119568073159748],[120.9353633824488,16.12155876793107],[120.9245880800514,16.121956904486428],[120.91381277765396,16.124743837982017],[120.90246432056391,16.12517923653712],[120.89782039209513,16.12517923653712],[120.89433434639713,16.130715706355083],[120.88480234812249,16.137881710778608],[120.86905382923396,16.14743597993371],[120.86382544735349,16.159809522570733],[120.85786409212898,16.17211570638176],[120.86449504745045,16.184056403146435],[120.87319817630991,16.194802412784306],[120.87361261101749,16.206343771174204],[120.87444148043267,16.216292675778227],[120.87460074975088,16.22734566285117],[120.88077981859131,16.233234268614815],[120.88388860668871,16.24592137672633],[120.88728895636805,16.256481132672945],[120.8897755646136,16.27040590919971],[120.8947487811047,16.28592092532811],[120.90246432056391,16.33879994610276],[120.89967645464927,16.346482710267082],[120.8964065199351,16.356717450515948],[120.89143330344397,16.363875222433602],[120.88770339107565,16.370237465947675],[120.88480234812249,16.378587595617756],[120.88388860668871,16.389883159259497],[120.87924467821972,16.399171016197265],[120.87924467821972,16.408458873134858],[120.87924467821972,16.417746730072448],[120.88388860668871,16.431678515478833],[120.8931764636263,16.436322443947812],[120.8843879134149,16.456206777494096],[120.88273017458454,16.463758332988668],[120.87941469692379,16.47210444686425],[120.87858582750862,16.480450201276124],[120.88231573987692,16.501114330750113],[120.88853253515754,16.50598137097995],[120.89782039209513,16.519913156386483],[120.89557765051987,16.529325250002433],[120.89350547698191,16.547997816996595],[120.89267660756674,16.558326545558554],[120.8901899993212,16.568257493289376],[120.89184773815158,16.57739351293926],[120.89350547698191,16.584145944419603],[120.89847869347305,16.59606142180336],[120.90096530171861,16.606784720052424],[120.90096530171861,16.618301670016844],[120.89723538935027,16.63100922677887],[120.87924467821972,16.645299225044464],[120.87900026221618,16.65800998913474],[120.88024356633896,16.667538761372953],[120.87858582750862,16.680640048487653],[120.87651365397066,16.694534372138015],[120.87483237130674,16.709998397687485],[120.87460074975088,16.72888993748295],[120.88853253515754,16.742821722889506],[120.89341814407099,16.750224276731988],[120.89750701407914,16.755563356678774],[120.90246432056391,16.761397436764693],[120.90246432056391,16.77532922217108],[120.89787872953443,16.785103557121236],[120.89416157498157,16.79506789017608],[120.89602015225799,16.808945911024175],[120.89782039209513,16.82176850685919],[120.90246432056391,16.826412435328223],[120.90246432056391,16.831056363796996],[120.91220481015313,16.844239574935234],[120.9164116598153,16.85309735775959],[120.92903220880196,16.861954725774787],[120.93576316826146,16.870006518395734],[120.93828727805882,16.881278451589854],[120.94333549765346,16.887719254173508],[120.95006645711302,16.901405229765324],[120.95679741657257,16.914285240657406],[120.96941796555919,16.9215298599184],[120.97614892501875,16.924749601255858],[120.98624536420806,16.931188918752646],[121.0055968726542,16.944871736880177],[121.01737605170842,16.963382200277064],[121.01990016150576,16.977867377693194],[121.02999660069506,17.00039765344922],[121.03756893008703,17.00924809238366],[121.05271358887101,17.0084435243038],[121.06365139799277,17.00200685526118],[121.07038235745227,17.00039765344922],[121.08468564630383,17.0084435243038],[121.10151304495267,17.012466330140363],[121.11245085407441,17.013270880938126],[121.13180236252062,17.01407542827903],[121.15115387096678,17.012466330140363],[121.16293305002098,17.016489049559166],[121.16649801818306,17.01582529389772],[121.1713467493454,17.01407542827903],[121.18312592839959,17.01809811312568],[121.19069825779157,17.021316198764968],[121.19895085843442,17.02214655790012],[121.20331880677819,17.022925220835425],[121.20736455775884,17.023295855691245],[121.2125738760351,17.022925220835425],[121.22098757535952,17.022120711529407],[121.22771853481905,17.02533872800142],[121.23360812434616,17.028556689129225],[121.24118045373814,17.027752204036293],[121.25043552299502,17.028556689129225],[121.2563251125221,17.031774594903666],[121.26025066779808,17.032489983880392],[121.2647388118465,17.0333835270305],[121.26776289933773,17.035363056263268],[121.27315251117092,17.035796899267027],[121.27904210069805,17.035796899267027],[121.2845902979866,17.03679957590152],[121.28913853988733,17.039014680462756],[121.29360497583421,17.04139636457444],[121.29755223921178,17.043841248409823],[121.3034418287389,17.049472086810546],[121.31073286374463,17.047429478154886],[121.31437963786063,17.047058891130167],[121.31942785745528,17.042232406275193],[121.31942785745528,17.037405796787237],[121.32447607704992,17.032579062697252],[121.33036566657704,17.022925220835425],[121.34298621556366,17.01166177588591],[121.34971717502322,17.0084435243038],[121.3509377854872,17.000200239851544],[121.3509377854872,16.992273563074157],[121.3455501342885,16.984742909723472],[121.33933361367465,16.974833694715667],[121.33270265835317,16.965320356115225],[121.32897274598481,16.955806535607703],[121.32772944186203,16.94113845205593],[121.32897274598481,16.925676260789498],[121.33436039718354,16.91536742770602],[121.34016248308983,16.90704065069588],[121.34016248308983,16.897127341320427],[121.3302160501076,16.889592877701816],[121.32980161539999,16.876505989099797],[121.32026961712539,16.868574100046715],[121.3136386618039,16.86222834905498],[121.30617883706725,16.857072269508148],[121.30452109823688,16.85191604936359],[121.3020344899913,16.843586473762805],[121.30493553294446,16.832083123807667],[121.31115205355833,16.822959280421834],[121.32275622537094,16.822165881971735],[121.33063048481522,16.823752675550118],[121.33809030955187,16.832083123807667],[121.3467934384113,16.83803321967114],[121.35756874080872,16.844776435584595],[121.36751517379095,16.84913956490945],[121.38243482326425,16.85508912455079],[121.39403899507685,16.85984863750651],[121.40398542805909,16.864211419127717],[121.41351742633368,16.868970702408674],[121.42429272873113,16.869763904635263],[121.43258142288295,16.8673842879662],[121.43962681291204,16.85786552166763],[121.44915881118663,16.844776435584595],[121.45247428884738,16.83565320376247],[121.45413202767774,16.821769181501036],[121.44920916953456,16.820482565481978],[121.44049036538684,16.814016473087975],[121.42985766108833,16.805179863681445],[121.40966478270975,16.780209647864357],[121.40293382325022,16.77295961546214],[121.40040971345286,16.762486858292913],[121.38442368473643,16.75281918603629],[121.37432724554716,16.75201352451206],[121.3709617658174,16.744762417360324],[121.36338943642541,16.74153961443777],[121.35161025737123,16.734288108500152],[121.34067244824944,16.728647857538427],[121.33646559858724,16.715755228749774],[121.33730696851968,16.69641465207347],[121.33478285872238,16.685131744479264],[121.33394148878993,16.675460150726337],[121.33225874892504,16.66014579385713],[121.32889326919526,16.652085113912854],[121.33057600906012,16.64160572289837],[121.33057600906012,16.627901039442513],[121.32384504960062,16.619839003557622],[121.31458998034375,16.614195376949578],[121.30870039081664,16.60532648573568],[121.31206587054639,16.594844541020056]]]},"properties":{"id":16,"BASIN":"Magat","DAM_BASIN":null,"AREA_SB":1233.257}}],"properties":{"source":"Magatdam.shp","n":1}}